EARTHCARE               
1 59908U 24101A   24252.33350621  .00036654  00000+0  50396-3 0  9996
2 59908  96.9887  18.2137 0004574 148.0583 212.0951 15.57193627 15913
